AUTCUBE 2               
1 43681U 18084K   26068.48152820  .00005282  00000+0  33524-3 0  9991
2 43681  98.0799 269.3640 0009685  28.2406 331.9345 15.09319394401889
STARLINK-2418           
1 48097U 21027F   26068.52940928 -.00001555  00000+0 -85535-4 0  9998
2 48097  53.0551 152.3405 0001167  85.6837 274.4285 15.06398346272672
