[{"OBJECT_NAME":"AUTCUBE 2","OBJECT_ID":"2018-084K","EPOCH":"2026-03-09T11:33:24.036480","MEAN_MOTION":15.09319394,"ECCENTRICITY":0.00096854,"INCLINATION":98.0799,"RA_OF_ASC_NODE":269.364,"ARG_OF_PERICENTER":28.2406,"MEAN_ANOMALY":331.9345,"EPHEMERIS_TYPE":0,"CLASSIFICATION_TYPE":"U","NORAD_CAT_ID":43681,"ELEMENT_SET_NO":999,"REV_AT_EPOCH":40188,"BSTAR":0.00033524122,"MEAN_MOTION_DOT":5.282e-5,"MEAN_MOTION_DDOT":0},{"OBJECT_NAME":"STARLINK-2418","OBJECT_ID":"2021-027F","EPOCH":"2026-03-09T12:42:20.961792","MEAN_MOTION":15.06398346,"ECCENTRICITY":0.00011676,"INCLINATION":53.0551,"RA_OF_ASC_NODE":152.3405,"ARG_OF_PERICENTER":85.6837,"MEAN_ANOMALY":274.4285,"EPHEMERIS_TYPE":0,"CLASSIFICATION_TYPE":"U","NORAD_CAT_ID":48097,"ELEMENT_SET_NO":999,"REV_AT_EPOCH":27267,"BSTAR":-8.5535251e-5,"MEAN_MOTION_DOT":-1.555e-5,"MEAN_MOTION_DDOT":0}]
